{"type": "FeatureCollection", "_comment": "[seed] coarse dev polygons, NOT survey-grade boundaries", "features": [{"type": "Feature", "properties": {"name": "Lagos", "code": "LA"}, "geometry": {"type": "Polygon", "coordinates": [[[3.05, 6.35], [3.75, 6.35], [3.75, 6.75], [3.05, 6.75], [3.05, 6.35]]]}}, {"type": "Feature", "properties": {"name": "FCT", "code": "FC"}, "geometry": {"type": "Polygon", "coordinates": [[[6.9, 8.25], [7.65, 8.25], [7.65, 9.2], [6.9, 9.2], [6.9, 8.25]]]}}, {"type": "Feature", "properties": {"name": "Abia", "code": "AB"}, "geometry": {"type": "Polygon", "coordinates": [[[7.1, 4.85], [8.05, 4.85], [8.05, 5.95], [7.1, 5.95], [7.1, 4.85]]]}}, {"type": "Feature", "properties": {"name": "Imo", "code": "IM"}, "geometry": {"type": "Polygon", "coordinates": [[[6.65, 5.1], [7.45, 5.1], [7.45, 6.05], [6.65, 6.05], [6.65, 5.1]]]}}, {"type": "Feature", "properties": {"name": "Akwa Ibom", "code": "AK"}, "geometry": {"type": "Polygon", "coordinates": [[[7.45, 4.45], [8.45, 4.45], [8.45, 5.55], [7.45, 5.55], [7.45, 4.45]]]}}, {"type": "Feature", "properties": {"name": "Ebonyi", "code": "EB"}, "geometry": {"type": "Polygon", "coordinates": [[[7.55, 5.6], [8.45, 5.6], [8.45, 6.75], [7.55, 6.75], [7.55, 5.6]]]}}, {"type": "Feature", "properties": {"name": "Enugu", "code": "EN"}, "geometry": {"type": "Polygon", "coordinates": [[[6.9, 5.85], [7.85, 5.85], [7.85, 7.1], [6.9, 7.1], [6.9, 5.85]]]}}, {"type": "Feature", "properties": {"name": "Anambra", "code": "AN"}, "geometry": {"type": "Polygon", "coordinates": [[[6.5, 5.6], [7.35, 5.6], [7.35, 6.85], [6.5, 6.85], [6.5, 5.6]]]}}, {"type": "Feature", "properties": {"name": "Bayelsa", "code": "BY"}, "geometry": {"type": "Polygon", "coordinates": [[[5.45, 4.2], [6.55, 4.2], [6.55, 5.3], [5.45, 5.3], [5.45, 4.2]]]}}, {"type": "Feature", "properties": {"name": "Rivers", "code": "RI"}, "geometry": {"type": "Polygon", "coordinates": [[[6.4, 4.3], [7.6, 4.3], [7.6, 5.75], [6.4, 5.75], [6.4, 4.3]]]}}, {"type": "Feature", "properties": {"name": "Delta", "code": "DE"}, "geometry": {"type": "Polygon", "coordinates": [[[5.3, 4.9], [6.85, 4.9], [6.85, 6.55], [5.3, 6.55], [5.3, 4.9]]]}}, {"type": "Feature", "properties": {"name": "Edo", "code": "ED"}, "geometry": {"type": "Polygon", "coordinates": [[[5.4, 5.7], [6.85, 5.7], [6.85, 7.55], [5.4, 7.55], [5.4, 5.7]]]}}, {"type": "Feature", "properties": {"name": "Ekiti", "code": "EK"}, "geometry": {"type": "Polygon", "coordinates": [[[4.7, 7.3], [5.75, 7.3], [5.75, 8.3], [4.7, 8.3], [4.7, 7.3]]]}}, {"type": "Feature", "properties": {"name": "Osun", "code": "OS"}, "geometry": {"type": "Polygon", "coordinates": [[[4.05, 6.95], [5.2, 6.95], [5.2, 8.3], [4.05, 8.3], [4.05, 6.95]]]}}, {"type": "Feature", "properties": {"name": "Ondo", "code": "ON"}, "geometry": {"type": "Polygon", "coordinates": [[[4.45, 5.8], [6.1, 5.8], [6.1, 7.95], [4.45, 7.95], [4.45, 5.8]]]}}, {"type": "Feature", "properties": {"name": "Ogun", "code": "OG"}, "geometry": {"type": "Polygon", "coordinates": [[[2.65, 6.45], [4.35, 6.45], [4.35, 7.15], [2.65, 7.15], [2.65, 6.45]]]}}, {"type": "Feature", "properties": {"name": "Oyo", "code": "OY"}, "geometry": {"type": "Polygon", "coordinates": [[[2.65, 7.15], [4.05, 7.15], [4.05, 9.3], [2.65, 9.3], [2.65, 7.15]]]}}, {"type": "Feature", "properties": {"name": "Cross River", "code": "CR"}, "geometry": {"type": "Polygon", "coordinates": [[[7.95, 4.5], [9.5, 4.5], [9.5, 6.85], [7.95, 6.85], [7.95, 4.5]]]}}, {"type": "Feature", "properties": {"name": "Benue", "code": "BE"}, "geometry": {"type": "Polygon", "coordinates": [[[7.5, 6.35], [10.0, 6.35], [10.0, 8.2], [7.5, 8.2], [7.5, 6.35]]]}}, {"type": "Feature", "properties": {"name": "Kogi", "code": "KO"}, "geometry": {"type": "Polygon", "coordinates": [[[5.5, 6.45], [8.05, 6.45], [8.05, 8.85], [5.5, 8.85], [5.5, 6.45]]]}}, {"type": "Feature", "properties": {"name": "Nasarawa", "code": "NA"}, "geometry": {"type": "Polygon", "coordinates": [[[7.0, 7.7], [9.8, 7.7], [9.8, 9.35], [7.0, 9.35], [7.0, 7.7]]]}}, {"type": "Feature", "properties": {"name": "Plateau", "code": "PL"}, "geometry": {"type": "Polygon", "coordinates": [[[8.45, 8.15], [10.55, 8.15], [10.55, 10.2], [8.45, 10.2], [8.45, 8.15]]]}}, {"type": "Feature", "properties": {"name": "Taraba", "code": "TA"}, "geometry": {"type": "Polygon", "coordinates": [[[9.45, 6.45], [11.65, 6.45], [11.65, 9.7], [9.45, 9.7], [9.45, 6.45]]]}}, {"type": "Feature", "properties": {"name": "Adamawa", "code": "AD"}, "geometry": {"type": "Polygon", "coordinates": [[[11.3, 7.25], [13.8, 7.25], [13.8, 10.95], [11.3, 10.95], [11.3, 7.25]]]}}, {"type": "Feature", "properties": {"name": "Kwara", "code": "KW"}, "geometry": {"type": "Polygon", "coordinates": [[[2.65, 7.65], [6.3, 7.65], [6.3, 9.8], [2.65, 9.8], [2.65, 7.65]]]}}, {"type": "Feature", "properties": {"name": "Niger", "code": "NI"}, "geometry": {"type": "Polygon", "coordinates": [[[3.4, 8.0], [7.35, 8.0], [7.35, 11.35], [3.4, 11.35], [3.4, 8.0]]]}}, {"type": "Feature", "properties": {"name": "Kaduna", "code": "KD"}, "geometry": {"type": "Polygon", "coordinates": [[[6.0, 9.15], [8.9, 9.15], [8.9, 11.5], [6.0, 11.5], [6.0, 9.15]]]}}, {"type": "Feature", "properties": {"name": "Kano", "code": "KN"}, "geometry": {"type": "Polygon", "coordinates": [[[7.7, 10.3], [9.55, 10.3], [9.55, 12.5], [7.7, 12.5], [7.7, 10.3]]]}}, {"type": "Feature", "properties": {"name": "Jigawa", "code": "JI"}, "geometry": {"type": "Polygon", "coordinates": [[[8.2, 11.2], [10.45, 11.2], [10.45, 13.05], [8.2, 13.05], [8.2, 11.2]]]}}, {"type": "Feature", "properties": {"name": "Katsina", "code": "KT"}, "geometry": {"type": "Polygon", "coordinates": [[[6.85, 11.45], [9.25, 11.45], [9.25, 13.35], [6.85, 13.35], [6.85, 11.45]]]}}, {"type": "Feature", "properties": {"name": "Zamfara", "code": "ZA"}, "geometry": {"type": "Polygon", "coordinates": [[[5.2, 10.8], [7.3, 10.8], [7.3, 12.95], [5.2, 12.95], [5.2, 10.8]]]}}, {"type": "Feature", "properties": {"name": "Sokoto", "code": "SO"}, "geometry": {"type": "Polygon", "coordinates": [[[3.95, 12.0], [6.8, 12.0], [6.8, 13.85], [3.95, 13.85], [3.95, 12.0]]]}}, {"type": "Feature", "properties": {"name": "Kebbi", "code": "KE"}, "geometry": {"type": "Polygon", "coordinates": [[[3.45, 10.2], [5.55, 10.2], [5.55, 12.75], [3.45, 12.75], [3.45, 10.2]]]}}, {"type": "Feature", "properties": {"name": "Bauchi", "code": "BA"}, "geometry": {"type": "Polygon", "coordinates": [[[8.5, 9.7], [11.25, 9.7], [11.25, 12.3], [8.5, 12.3], [8.5, 9.7]]]}}, {"type": "Feature", "properties": {"name": "Gombe", "code": "GO"}, "geometry": {"type": "Polygon", "coordinates": [[[10.3, 9.5], [12.2, 9.5], [12.2, 11.8], [10.3, 11.8], [10.3, 9.5]]]}}, {"type": "Feature", "properties": {"name": "Yobe", "code": "YO"}, "geometry": {"type": "Polygon", "coordinates": [[[10.5, 10.45], [12.55, 10.45], [12.55, 13.35], [10.5, 13.35], [10.5, 10.45]]]}}, {"type": "Feature", "properties": {"name": "Borno", "code": "BO"}, "geometry": {"type": "Polygon", "coordinates": [[[11.3, 10.0], [14.7, 10.0], [14.7, 13.75], [11.3, 13.75], [11.3, 10.0]]]}}]}