{"type": "FeatureCollection", "_comment": "[seed] LGA centroids as tiny squares (~2km) for dev attribution", "features": [{"type": "Feature", "properties": {"name": "Ikeja", "code": "", "state": "Lagos"}, "geometry": {"type": "Polygon", "coordinates": [[[3.33, 6.59], [3.3499999999999996, 6.59], [3.3499999999999996, 6.609999999999999], [3.33, 6.609999999999999], [3.33, 6.59]]]}}, {"type": "Feature", "properties": {"name": "Eti-Osa", "code": "", "state": "Lagos"}, "geometry": {"type": "Polygon", "coordinates": [[[3.5900000000000003, 6.45], [3.61, 6.45], [3.61, 6.47], [3.5900000000000003, 6.47], [3.5900000000000003, 6.45]]]}}, {"type": "Feature", "properties": {"name": "Ikorodu", "code": "", "state": "Lagos"}, "geometry": {"type": "Polygon", "coordinates": [[[3.5, 6.61], [3.5199999999999996, 6.61], [3.5199999999999996, 6.63], [3.5, 6.63], [3.5, 6.61]]]}}, {"type": "Feature", "properties": {"name": "Lagos Island", "code": "", "state": "Lagos"}, "geometry": {"type": "Polygon", "coordinates": [[[3.39, 6.44], [3.4099999999999997, 6.44], [3.4099999999999997, 6.46], [3.39, 6.46], [3.39, 6.44]]]}}, {"type": "Feature", "properties": {"name": "Alimosho", "code": "", "state": "Lagos"}, "geometry": {"type": "Polygon", "coordinates": [[[3.24, 6.59], [3.26, 6.59], [3.26, 6.609999999999999], [3.24, 6.609999999999999], [3.24, 6.59]]]}}, {"type": "Feature", "properties": {"name": "AMAC", "code": "", "state": "FCT"}, "geometry": {"type": "Polygon", "coordinates": [[[7.48, 9.05], [7.5, 9.05], [7.5, 9.07], [7.48, 9.07], [7.48, 9.05]]]}}, {"type": "Feature", "properties": {"name": "Bwari", "code": "", "state": "FCT"}, "geometry": {"type": "Polygon", "coordinates": [[[7.37, 9.27], [7.39, 9.27], [7.39, 9.29], [7.37, 9.29], [7.37, 9.27]]]}}, {"type": "Feature", "properties": {"name": "Gwagwalada", "code": "", "state": "FCT"}, "geometry": {"type": "Polygon", "coordinates": [[[7.07, 8.93], [7.09, 8.93], [7.09, 8.95], [7.07, 8.95], [7.07, 8.93]]]}}, {"type": "Feature", "properties": {"name": "Kano Municipal", "code": "", "state": "Kano"}, "geometry": {"type": "Polygon", "coordinates": [[[8.51, 11.99], [8.53, 11.99], [8.53, 12.01], [8.51, 12.01], [8.51, 11.99]]]}}, {"type": "Feature", "properties": {"name": "Nasarawa", "code": "", "state": "Kano"}, "geometry": {"type": "Polygon", "coordinates": [[[8.540000000000001, 11.97], [8.56, 11.97], [8.56, 11.99], [8.540000000000001, 11.99], [8.540000000000001, 11.97]]]}}, {"type": "Feature", "properties": {"name": "Ibadan North", "code": "", "state": "Oyo"}, "geometry": {"type": "Polygon", "coordinates": [[[3.89, 7.390000000000001], [3.9099999999999997, 7.390000000000001], [3.9099999999999997, 7.41], [3.89, 7.41], [3.89, 7.390000000000001]]]}}, {"type": "Feature", "properties": {"name": "Ibadan South-West", "code": "", "state": "Oyo"}, "geometry": {"type": "Polygon", "coordinates": [[[3.8600000000000003, 7.36], [3.88, 7.36], [3.88, 7.38], [3.8600000000000003, 7.38], [3.8600000000000003, 7.36]]]}}, {"type": "Feature", "properties": {"name": "Abeokuta South", "code": "", "state": "Ogun"}, "geometry": {"type": "Polygon", "coordinates": [[[3.3400000000000003, 7.140000000000001], [3.36, 7.140000000000001], [3.36, 7.16], [3.3400000000000003, 7.16], [3.3400000000000003, 7.140000000000001]]]}}, {"type": "Feature", "properties": {"name": "Abeokuta North", "code": "", "state": "Ogun"}, "geometry": {"type": "Polygon", "coordinates": [[[3.29, 7.19], [3.3099999999999996, 7.19], [3.3099999999999996, 7.21], [3.29, 7.21], [3.29, 7.19]]]}}, {"type": "Feature", "properties": {"name": "Port Harcourt", "code": "", "state": "Rivers"}, "geometry": {"type": "Polygon", "coordinates": [[[6.99, 4.8100000000000005], [7.01, 4.8100000000000005], [7.01, 4.83], [6.99, 4.83], [6.99, 4.8100000000000005]]]}}, {"type": "Feature", "properties": {"name": "Obio/Akpor", "code": "", "state": "Rivers"}, "geometry": {"type": "Polygon", "coordinates": [[[6.92, 4.890000000000001], [6.9399999999999995, 4.890000000000001], [6.9399999999999995, 4.91], [6.92, 4.91], [6.92, 4.890000000000001]]]}}, {"type": "Feature", "properties": {"name": "Kaduna North", "code": "", "state": "Kaduna"}, "geometry": {"type": "Polygon", "coordinates": [[[7.42, 10.540000000000001], [7.4399999999999995, 10.540000000000001], [7.4399999999999995, 10.56], [7.42, 10.56], [7.42, 10.540000000000001]]]}}, {"type": "Feature", "properties": {"name": "Kaduna South", "code": "", "state": "Kaduna"}, "geometry": {"type": "Polygon", "coordinates": [[[7.41, 10.47], [7.43, 10.47], [7.43, 10.49], [7.41, 10.49], [7.41, 10.47]]]}}, {"type": "Feature", "properties": {"name": "Enugu North", "code": "", "state": "Enugu"}, "geometry": {"type": "Polygon", "coordinates": [[[7.49, 6.44], [7.51, 6.44], [7.51, 6.46], [7.49, 6.46], [7.49, 6.44]]]}}, {"type": "Feature", "properties": {"name": "Enugu South", "code": "", "state": "Enugu"}, "geometry": {"type": "Polygon", "coordinates": [[[7.49, 6.41], [7.51, 6.41], [7.51, 6.43], [7.49, 6.43], [7.49, 6.41]]]}}, {"type": "Feature", "properties": {"name": "Owerri Municipal", "code": "", "state": "Imo"}, "geometry": {"type": "Polygon", "coordinates": [[[7.0200000000000005, 5.48], [7.04, 5.48], [7.04, 5.5], [7.0200000000000005, 5.5], [7.0200000000000005, 5.48]]]}}, {"type": "Feature", "properties": {"name": "Aba North", "code": "", "state": "Abia"}, "geometry": {"type": "Polygon", "coordinates": [[[7.36, 5.11], [7.38, 5.11], [7.38, 5.13], [7.36, 5.13], [7.36, 5.11]]]}}, {"type": "Feature", "properties": {"name": "Jos North", "code": "", "state": "Plateau"}, "geometry": {"type": "Polygon", "coordinates": [[[8.89, 9.92], [8.91, 9.92], [8.91, 9.94], [8.89, 9.94], [8.89, 9.92]]]}}, {"type": "Feature", "properties": {"name": "Jos South", "code": "", "state": "Plateau"}, "geometry": {"type": "Polygon", "coordinates": [[[8.86, 9.790000000000001], [8.879999999999999, 9.790000000000001], [8.879999999999999, 9.81], [8.86, 9.81], [8.86, 9.790000000000001]]]}}, {"type": "Feature", "properties": {"name": "Maiduguri", "code": "", "state": "Borno"}, "geometry": {"type": "Polygon", "coordinates": [[[13.14, 11.82], [13.16, 11.82], [13.16, 11.84], [13.14, 11.84], [13.14, 11.82]]]}}, {"type": "Feature", "properties": {"name": "Sokoto North", "code": "", "state": "Sokoto"}, "geometry": {"type": "Polygon", "coordinates": [[[5.24, 13.06], [5.26, 13.06], [5.26, 13.08], [5.24, 13.08], [5.24, 13.06]]]}}, {"type": "Feature", "properties": {"name": "Ilorin West", "code": "", "state": "Kwara"}, "geometry": {"type": "Polygon", "coordinates": [[[4.54, 8.49], [4.56, 8.49], [4.56, 8.51], [4.54, 8.51], [4.54, 8.49]]]}}, {"type": "Feature", "properties": {"name": "Ilorin East", "code": "", "state": "Kwara"}, "geometry": {"type": "Polygon", "coordinates": [[[4.59, 8.46], [4.609999999999999, 8.46], [4.609999999999999, 8.48], [4.59, 8.48], [4.59, 8.46]]]}}, {"type": "Feature", "properties": {"name": "Warri South", "code": "", "state": "Delta"}, "geometry": {"type": "Polygon", "coordinates": [[[5.74, 5.51], [5.76, 5.51], [5.76, 5.529999999999999], [5.74, 5.529999999999999], [5.74, 5.51]]]}}, {"type": "Feature", "properties": {"name": "Yenagoa", "code": "", "state": "Bayelsa"}, "geometry": {"type": "Polygon", "coordinates": [[[6.25, 4.92], [6.27, 4.92], [6.27, 4.9399999999999995], [6.25, 4.9399999999999995], [6.25, 4.92]]]}}, {"type": "Feature", "properties": {"name": "Uyo", "code": "", "state": "Akwa Ibom"}, "geometry": {"type": "Polygon", "coordinates": [[[7.92, 5.0200000000000005], [7.9399999999999995, 5.0200000000000005], [7.9399999999999995, 5.04], [7.92, 5.04], [7.92, 5.0200000000000005]]]}}, {"type": "Feature", "properties": {"name": "Calabar Municipal", "code": "", "state": "Cross River"}, "geometry": {"type": "Polygon", "coordinates": [[[8.32, 4.95], [8.34, 4.95], [8.34, 4.97], [8.32, 4.97], [8.32, 4.95]]]}}, {"type": "Feature", "properties": {"name": "Makurdi", "code": "", "state": "Benue"}, "geometry": {"type": "Polygon", "coordinates": [[[8.52, 7.720000000000001], [8.54, 7.720000000000001], [8.54, 7.74], [8.52, 7.74], [8.52, 7.720000000000001]]]}}, {"type": "Feature", "properties": {"name": "Minna", "code": "", "state": "Niger"}, "geometry": {"type": "Polygon", "coordinates": [[[6.54, 9.59], [6.56, 9.59], [6.56, 9.61], [6.54, 9.61], [6.54, 9.59]]]}}, {"type": "Feature", "properties": {"name": "Bauchi", "code": "", "state": "Bauchi"}, "geometry": {"type": "Polygon", "coordinates": [[[9.83, 10.3], [9.85, 10.3], [9.85, 10.32], [9.83, 10.32], [9.83, 10.3]]]}}, {"type": "Feature", "properties": {"name": "Gombe", "code": "", "state": "Gombe"}, "geometry": {"type": "Polygon", "coordinates": [[[11.16, 10.28], [11.18, 10.28], [11.18, 10.299999999999999], [11.16, 10.299999999999999], [11.16, 10.28]]]}}, {"type": "Feature", "properties": {"name": "Akure South", "code": "", "state": "Ondo"}, "geometry": {"type": "Polygon", "coordinates": [[[5.19, 7.24], [5.21, 7.24], [5.21, 7.26], [5.19, 7.26], [5.19, 7.24]]]}}, {"type": "Feature", "properties": {"name": "Ado Ekiti", "code": "", "state": "Ekiti"}, "geometry": {"type": "Polygon", "coordinates": [[[5.21, 7.61], [5.2299999999999995, 7.61], [5.2299999999999995, 7.63], [5.21, 7.63], [5.21, 7.61]]]}}]}